{
  "type": "FeatureCollection",
  "features": [
    {
      "type": "Feature",
      "properties": {
        "norad_id": 66577,
        "name": "STARLINK-35815",
        "group": "last-30-days",
        "lat": -32.16590176909423,
        "lon": -13.535599485692865,
        "alt_km": 417.2780815823926,
        "timestamp": "2025-12-12T05:47:27.525891+00:00",
        "meta_object_name": "STARLINK-35815",
        "meta_object_id": "2025-268W",
        "meta_epoch": "2025-12-11T20:00:01.999872",
        "meta_mean_motion": 15.50532543,
        "meta_eccentricity": 0.0001625,
        "meta_inclination": 43.0003,
        "meta_ra_of_asc_node": 126.4052,
        "meta_arg_of_pericenter": 278.2473,
        "meta_mean_anomaly": 193.2646,
        "meta_ephemeris_type": 0,
        "meta_classification_type": "U",
        "meta_norad_cat_id": 66577,
        "meta_element_set_no": 999,
        "meta_rev_at_epoch": 452,
        "meta_bstar": 0.00011461687,
        "meta_mean_motion_dot": 6.377e-05,
        "meta_mean_motion_ddot": 0,
        "tle_line1": "1 66577U 25268W   25345.83335648  .00006377  00000+0  11462-3 0  9992",
        "tle_line2": "2 66577  43.0003 126.4052 0001625 278.2473 193.2646 15.50532543  4525"
      },
      "geometry": {
        "type": "Point",
        "coordinates": [
          -13.535599485692865,
          -32.16590176909423
        ]
      }
    },
    {
      "type": "Feature",
      "properties": {
        "norad_id": 66578,
        "name": "STARLINK-35743",
        "group": "last-30-days",
        "lat": -33.11512788246312,
        "lon": -11.56193075482266,
        "alt_km": 417.39678743011245,
        "timestamp": "2025-12-12T05:47:27.525901+00:00",
        "meta_object_name": "STARLINK-35743",
        "meta_object_id": "2025-268X",
        "meta_epoch": "2025-12-11T20:00:01.999872",
        "meta_mean_motion": 15.50548315,
        "meta_eccentricity": 0.00013424,
        "meta_inclination": 43.0002,
        "meta_ra_of_asc_node": 126.4002,
        "meta_arg_of_pericenter": 274.653,
        "meta_mean_anomaly": 198.7649,
        "meta_ephemeris_type": 0,
        "meta_classification_type": "U",
        "meta_norad_cat_id": 66578,
        "meta_element_set_no": 999,
        "meta_rev_at_epoch": 452,
        "meta_bstar": -0.00025015335,
        "meta_mean_motion_dot": -0.00014972,
        "meta_mean_motion_ddot": 0,
        "tle_line1": "1 66578U 25268X   25345.83335648 -.00014972  00000+0 -25015-3 0  9994",
        "tle_line2": "2 66578  43.0002 126.4002 0001342 274.6530 198.7649 15.50548315  4527"
      },
      "geometry": {
        "type": "Point",
        "coordinates": [
          -11.56193075482266,
          -33.11512788246312
        ]
      }
    },
    {
      "type": "Feature",
      "properties": {
        "norad_id": 66579,
        "name": "STARLINK-35868",
        "group": "last-30-days",
        "lat": -34.032037679190104,
        "lon": -9.546592802011014,
        "alt_km": 417.28949586351155,
        "timestamp": "2025-12-12T05:47:27.525913+00:00",
        "meta_object_name": "STARLINK-35868",
        "meta_object_id": "2025-268Y",
        "meta_epoch": "2025-12-11T20:00:01.999872",
        "meta_mean_motion": 15.50554794,
        "meta_eccentricity": 0.00015293,
        "meta_inclination": 43.0003,
        "meta_ra_of_asc_node": 126.3956,
        "meta_arg_of_pericenter": 268.8486,
        "meta_mean_anomaly": 206.4893,
        "meta_ephemeris_type": 0,
        "meta_classification_type": "U",
        "meta_norad_cat_id": 66579,
        "meta_element_set_no": 999,
        "meta_rev_at_epoch": 452,
        "meta_bstar": -0.00056212078,
        "meta_mean_motion_dot": -0.00033151,
        "meta_mean_motion_ddot": 0,
        "tle_line1": "1 66579U 25268Y   25345.83335648 -.00033151  00000+0 -56212-3 0  9998",
        "tle_line2": "2 66579  43.0003 126.3956 0001529 268.8486 206.4893 15.50554794  4524"
      },
      "geometry": {
        "type": "Point",
        "coordinates": [
          -9.546592802011014,
          -34.032037679190104
        ]
      }
    },
    {
      "type": "Feature",
      "properties": {
        "norad_id": 66580,
        "name": "STARLINK-35872",
        "group": "last-30-days",
        "lat": -34.91508514761217,
        "lon": -7.487704048087904,
        "alt_km": 417.4482399373492,
        "timestamp": "2025-12-12T05:47:27.525923+00:00",
        "meta_object_name": "STARLINK-35872",
        "meta_object_id": "2025-268Z",
        "meta_epoch": "2025-12-11T20:00:01.999872",
        "meta_mean_motion": 15.50553968,
        "meta_eccentricity": 0.00013623,
        "meta_inclination": 43.0002,
        "meta_ra_of_asc_node": 126.3911,
        "meta_arg_of_pericenter": 272.1654,
        "meta_mean_anomaly": 205.0926,
        "meta_ephemeris_type": 0,
        "meta_classification_type": "U",
        "meta_norad_cat_id": 66580,
        "meta_element_set_no": 999,
        "meta_rev_at_epoch": 452,
        "meta_bstar": -0.00058323377,
        "meta_mean_motion_dot": -0.00034376,
        "meta_mean_motion_ddot": 0,
        "tle_line1": "1 66580U 25268Z   25345.83335648 -.00034376  00000+0 -58323-3 0  9995",
        "tle_line2": "2 66580  43.0002 126.3911 0001362 272.1654 205.0926 15.50553968  4520"
      },
      "geometry": {
        "type": "Point",
        "coordinates": [
          -7.487704048087904,
          -34.91508514761217
        ]
      }
    },
    {
      "type": "Feature",
      "properties": {
        "norad_id": 66581,
        "name": "STARLINK-35744",
        "group": "last-30-days",
        "lat": -35.754090912515764,
        "lon": -5.407889540112087,
        "alt_km": 417.4599942413015,
        "timestamp": "2025-12-12T05:47:27.525934+00:00",
        "meta_object_name": "STARLINK-35744",
        "meta_object_id": "2025-268AA",
        "meta_epoch": "2025-12-11T20:00:01.999872",
        "meta_mean_motion": 15.50560063,
        "meta_eccentricity": 0.00016718,
        "meta_inclination": 43.0003,
        "meta_ra_of_asc_node": 126.3857,
        "meta_arg_of_pericenter": 286.8384,
        "meta_mean_anomaly": 192.3082,
        "meta_ephemeris_type": 0,
        "meta_classification_type": "U",
        "meta_norad_cat_id": 66581,
        "meta_element_set_no": 999,
        "meta_rev_at_epoch": 447,
        "meta_bstar": -0.0003871394,
        "meta_mean_motion_dot": -0.00022972,
        "meta_mean_motion_ddot": 0,
        "tle_line1": "1 66581U 25268AA  25345.83335648 -.00022972  00000+0 -38714-3 0  9997",
        "tle_line2": "2 66581  43.0003 126.3857 0001671 286.8384 192.3082 15.50560063  4475"
      },
      "geometry": {
        "type": "Point",
        "coordinates": [
          -5.407889540112087,
          -35.754090912515764
        ]
      }
    },
    {
      "type": "Feature",
      "properties": {
        "norad_id": 66582,
        "name": "STARLINK-35746",
        "group": "last-30-days",
        "lat": -36.57001022930726,
        "lon": -3.2464315178690786,
        "alt_km": 417.47809797012087,
        "timestamp": "2025-12-12T05:47:27.525946+00:00",
        "meta_object_name": "STARLINK-35746",
        "meta_object_id": "2025-268AB",
        "meta_epoch": "2025-12-11T20:00:01.999872",
        "meta_mean_motion": 15.50548825,
        "meta_eccentricity": 0.00014641,
        "meta_inclination": 43.0002,
        "meta_ra_of_asc_node": 126.3804,
        "meta_arg_of_pericenter": 278.0822,
        "meta_mean_anomaly": 203.006,
        "meta_ephemeris_type": 0,
        "meta_classification_type": "U",
        "meta_norad_cat_id": 66582,
        "meta_element_set_no": 999,
        "meta_rev_at_epoch": 452,
        "meta_bstar": -0.00028257599,
        "meta_mean_motion_dot": -0.00016865,
        "meta_mean_motion_ddot": 0,
        "tle_line1": "1 66582U 25268AB  25345.83335648 -.00016865  00000+0 -28258-3 0  9994",
        "tle_line2": "2 66582  43.0002 126.3804 0001464 278.0822 203.0060 15.50548825  4521"
      },
      "geometry": {
        "type": "Point",
        "coordinates": [
          -3.2464315178690786,
          -36.57001022930726
        ]
      }
    },
    {
      "type": "Feature",
      "properties": {
        "norad_id": 66583,
        "name": "STARLINK-35941",
        "group": "last-30-days",
        "lat": -37.33824387664106,
        "lon": -1.0620750122732179,
        "alt_km": 417.4741304530635,
        "timestamp": "2025-12-12T05:47:27.525956+00:00",
        "meta_object_name": "STARLINK-35941",
        "meta_object_id": "2025-268AC",
        "meta_epoch": "2025-12-11T20:00:01.999872",
        "meta_mean_motion": 15.50545143,
        "meta_eccentricity": 0.00014807,
        "meta_inclination": 43.0003,
        "meta_ra_of_asc_node": 126.3761,
        "meta_arg_of_pericenter": 276.7262,
        "meta_mean_anomaly": 206.2772,
        "meta_ephemeris_type": 0,
        "meta_classification_type": "U",
        "meta_norad_cat_id": 66583,
        "meta_element_set_no": 999,
        "meta_rev_at_epoch": 452,
        "meta_bstar": -0.00021316144,
        "meta_mean_motion_dot": -0.00012811,
        "meta_mean_motion_ddot": 0,
        "tle_line1": "1 66583U 25268AC  25345.83335648 -.00012811  00000+0 -21316-3 0  9990",
        "tle_line2": "2 66583  43.0003 126.3761 0001480 276.7262 206.2772 15.50545143  4521"
      },
      "geometry": {
        "type": "Point",
        "coordinates": [
          -1.0620750122732179,
          -37.33824387664106
        ]
      }
    }
  ]
}